NORAD_CAT_ID,OBJECT_NAME,OBJECT_TYPE,EPOCH,MEAN_MOTION,ECCENTRICITY,INCLINATION,RA_OF_ASC_NODE,ARG_OF_PERICENTER,MEAN_ANOMALY,BSTAR,MEAN_MOTION_DOT,MEAN_MOTION_DDOT,TLE_LINE0,TLE_LINE1,TLE_LINE2,SEMIMAJOR_AXIS,PERIOD,APOGEE,PERIGEE,DECAYED
53912.0,STARLINK-5059,PAYLOAD,2023-10-17 16:12:44,15.08845675,0.000165,53.2162,277.3623,92.7667,267.3514,0.00010715,1.418e-05,0.0,0 STARLINK-5059,1 53912U 22119AC  23290.67551677  .00001418  00000-0  10715-3 0  9996,2 53912  53.2162 277.3623 0001650  92.7667 267.3514 15.08845675 59887,6917.863,95.437,540.869,538.587,0.0
53912.0,STARLINK-5059,PAYLOAD,2023-10-18 04:55:50,15.08837703,0.00017,53.2167,274.9866,100.0878,260.0306,-6.3894e-05,-1.305e-05,0.0,0 STARLINK-5059,1 53912U 22119AC  23291.20544088 -.00001305  00000-0 -63894-4 0  9998,2 53912  53.2167 274.9866 0001700 100.0878 260.0306 15.08837703 59542,6917.887,95.438,540.928,538.576,0.0
53912.0,STARLINK-5059,PAYLOAD,2023-10-18 16:03:32,15.08842277,0.0001728,53.2161,272.9028,91.3393,268.7797,0.00010068,1.315e-05,0.0,0 STARLINK-5059,1 53912U 22119AC  23291.66912105  .00001315  00000-0  10068-3 0  9990,2 53912  53.2161 272.9028 0001728  91.3393 268.7797 15.08842277 60035,6917.873,95.437,540.934,538.543,0.0
53912.0,STARLINK-5059,PAYLOAD,2023-10-19 07:57:23,15.08852143,0.0001614,53.2165,269.9291,93.9321,266.1855,0.00031535,4.736e-05,0.0,0 STARLINK-5059,1 53912U 22119AC  23292.33151799  .00004736  00000-0  31535-3 0  9991,2 53912  53.2165 269.9291 0001614  93.9321 266.1855 15.08852143 59713,6917.843,95.437,540.825,538.592,0.0
53912.0,STARLINK-5059,PAYLOAD,2023-10-19 22:15:51,15.08841766,0.0001777,53.2168,267.2523,92.2248,267.8947,0.00023504,3.455e-05,0.0,0 STARLINK-5059,1 53912U 22119AC  23292.92768471  .00003455  00000-0  23504-3 0  9991,2 53912  53.2168 267.2523 0001777  92.2248 267.8947 15.08841766 60222,6917.875,95.437,540.969,538.511,0.0
53912.0,STARLINK-5059,PAYLOAD,2023-10-20 04:37:24,15.08843308,0.0001879,53.2169,266.0625,102.8173,257.303,0.00020131,2.917e-05,0.0,0 STARLINK-5059,1 53912U 22119AC  23293.19264277  .00002917  00000-0  20131-3 0  9991,2 53912  53.2169 266.0625 0001879 102.8173 257.3030 15.08843308 59848,6917.87,95.437,541.035,538.435,0.0
53912.0,STARLINK-5059,PAYLOAD,2023-10-20 22:06:39,15.08839458,0.0001679,53.2157,262.7934,93.815,266.3034,0.00014721,2.056e-05,0.0,0 STARLINK-5059,1 53912U 22119AC  23293.92128630  .00002056  00000-0  14721-3 0  9996,2 53912  53.2157 262.7934 0001679  93.8150 266.3034 15.08839458 60378,6917.882,95.438,540.909,538.586,0.0
53912.0,STARLINK-5059,PAYLOAD,2023-10-21 02:52:48,15.08835769,0.0001716,53.2158,261.9004,93.9663,266.1525,5.7949e-05,6.34e-06,0.0,0 STARLINK-5059,1 53912U 22119AC  23294.12000815  .00000634  00000-0  57949-4 0  9993,2 53912  53.2158 261.9004 0001716  93.9663 266.1525 15.08835769 59989,6917.893,95.438,540.945,538.571,0.0
53912.0,STARLINK-5059,PAYLOAD,2023-10-21 07:38:57,15.08844379,0.0001553,53.2161,261.0059,91.6485,268.4685,7.8495e-05,9.62e-06,0.0,0 STARLINK-5059,1 53912U 22119AC  23294.31872436  .00000962  00000-0  78495-4 0  9993,2 53912  53.2161 261.0059 0001553  91.6485 268.4685 15.08844379 60431,6917.867,95.437,540.806,538.658,0.0
53912.0,STARLINK-5059,PAYLOAD,2023-10-21 21:57:25,15.08846089,0.0001524,53.2155,258.3296,87.0777,273.039,0.00026254,3.893e-05,0.0,0 STARLINK-5059,1 53912U 22119AC  23294.91488390  .00003893  00000-0  26254-3 0  9992,2 53912  53.2155 258.3296 0001524  87.0777 273.0390 15.08846089 60522,6917.862,95.437,540.781,538.672,0.0
53912.0,STARLINK-5059,PAYLOAD,2023-10-22 04:18:57,15.08859359,0.0001507,53.2157,257.1406,89.8977,270.2188,0.00042545,6.493e-05,0.0,0 STARLINK-5059,1 53912U 22119AC  23295.17983772  .00006493  00000-0  42545-3 0  9995,2 53912  53.2157 257.1406 0001507  89.8977 270.2188 15.08859359 60143,6917.821,95.436,540.729,538.644,0.0
53912.0,STARLINK-5059,PAYLOAD,2023-10-23 04:09:45,15.08835696,0.0001472,53.2165,252.6792,98.9536,261.1623,-5.3864e-05,-1.145e-05,0.0,0 STARLINK-5059,1 53912U 22119AC  23296.17344539 -.00001145  00000-0 -53864-4 0  9996,2 53912  53.2165 252.6792 0001472  98.9536 261.1623 15.08835696 60290,6917.894,95.438,540.777,538.74,0.0
53912.0,STARLINK-5059,PAYLOAD,2023-10-23 13:42:04,15.0883692,0.0001425,53.2162,250.8965,100.5886,259.5267,2.158e-05,5.5e-07,0.0,0 STARLINK-5059,1 53912U 22119AC  23296.57088677  .00000055  00000-0  21580-4 0  9995,2 53912  53.2162 250.8965 0001425 100.5886 259.5267 15.08836920 60774,6917.89,95.438,540.741,538.769,0.0
53912.0,STARLINK-5059,PAYLOAD,2023-10-24 13:32:51,15.08841673,0.0001514,53.2165,246.44,110.6872,249.4283,0.00018522,2.661e-05,0.0,0 STARLINK-5059,1 53912U 22119AC  23297.56448879  .00002661  00000-0  18522-3 0  9995,2 53912  53.2165 246.4400 0001514 110.6872 249.4283 15.08841673 60922,6917.875,95.437,540.788,538.693,0.0
53912.0,STARLINK-5059,PAYLOAD,2023-10-25 05:26:43,15.08843947,0.0001692,53.2171,243.4659,108.4766,251.641,0.00029843,4.465e-05,0.0,0 STARLINK-5059,1 53912U 22119AC  23298.22688940  .00004465  00000-0  29843-3 0  9996,2 53912  53.2171 243.4659 0001692 108.4766 251.6410 15.08843947 60604,6917.868,95.437,540.904,538.563,0.0
53912.0,STARLINK-5059,PAYLOAD,2023-10-26 03:42:07,15.08847347,0.0001405,53.2153,239.2998,93.9305,266.1847,0.00018042,2.585e-05,0.0,0 STARLINK-5059,1 53912U 22119AC  23299.15424819  .00002585  00000-0  18042-3 0  9992,2 53912  53.2153 239.2998 0001405  93.9305 266.1847 15.08847347 60740,6917.858,95.437,540.695,538.751,0.0
53912.0,STARLINK-5059,PAYLOAD,2023-10-26 05:17:30,15.08848401,0.0001401,53.2152,239.002,93.0359,267.0794,0.00019935,2.887e-05,0.0,0 STARLINK-5059,1 53912U 22119AC  23299.22048765  .00002887  00000-0  19935-3 0  9999,2 53912  53.2152 239.0020 0001401  93.0359 267.0794 15.08848401 61170,6917.855,95.437,540.689,538.751,0.0
53912.0,STARLINK-5059,PAYLOAD,2023-10-27 13:05:12,15.08840657,0.0001724,53.2159,233.0555,82.8606,277.2583,2.0187e-05,3.3e-07,0.0,0 STARLINK-5059,1 53912U 22119AC  23300.54528752  .00000033  00000-0  20187-4 0  9999,2 53912  53.2159 233.0555 0001724  82.8606 277.2583 15.08840657 61379,6917.878,95.438,540.936,538.551,0.0
53912.0,STARLINK-5059,PAYLOAD,2023-10-27 19:26:45,15.08837552,0.0001777,53.2145,231.8677,81.2529,278.8664,-7.628e-05,-1.502e-05,0.0,0 STARLINK-5059,1 53912U 22119AC  23300.81024991 -.00001502  00000-0 -76280-4 0  9994,2 53912  53.2145 231.8677 0001777  81.2529 278.8664 15.08837552 60994,6917.888,95.438,540.982,538.524,0.0
53912.0,STARLINK-5059,PAYLOAD,2023-10-28 12:56:00,15.08839056,0.0001529,53.2161,228.5938,90.9798,269.1369,5.6105e-05,6.05e-06,0.0,0 STARLINK-5059,1 53912U 22119AC  23301.53889354  .00000605  00000-0  56105-4 0  9991,2 53912  53.2161 228.5938 0001529  90.9798 269.1369 15.08839056 61521,6917.883,95.438,540.806,538.691,0.0
53912.0,STARLINK-5059,PAYLOAD,2023-10-28 22:28:19,15.08843034,0.0001557,53.2155,226.8097,93.6795,266.4375,0.00031272,4.693e-05,0.0,0 STARLINK-5059,1 53912U 22119AC  23301.93633221  .00004693  00000-0  31272-3 0  9993,2 53912  53.2155 226.8097 0001557  93.6795 266.4375 15.08843034 61583,6917.871,95.437,540.813,538.659,0.0
53912.0,STARLINK-5059,PAYLOAD,2023-10-29 04:49:51,15.08860945,0.0001648,53.2166,225.6191,91.4811,268.637,0.00076238,0.00011873,0.0,0 STARLINK-5059,1 53912U 22119AC  23302.20128808  .00011873  00000-0  76238-3 0  9993,2 53912  53.2166 225.6191 0001648  91.4811 268.6370 15.08860945 61201,6917.816,95.436,540.821,538.541,0.0
53912.0,STARLINK-5059,PAYLOAD,2023-10-29 22:19:06,15.08849349,0.0001353,53.2158,222.3492,90.0517,270.063,0.00035027,5.292e-05,0.0,0 STARLINK-5059,1 53912U 22119AC  23302.92993125  .00005292  00000-0  35027-3 0  9993,2 53912  53.2158 222.3492 0001353  90.0517 270.0630 15.08849349 61730,6917.852,95.437,540.653,538.781,0.0
53912.0,STARLINK-5059,PAYLOAD,2023-10-30 04:40:38,15.08860636,0.0001342,53.2168,221.1592,87.2821,272.8325,0.00089438,0.00013983,0.0,0 STARLINK-5059,1 53912U 22119AC  23303.19488829  .00013983  00000-0  89438-3 0  9994,2 53912  53.2168 221.1592 0001342  87.2821 272.8325 15.08860636 61354,6917.817,95.436,540.611,538.754,0.0
53912.0,STARLINK-5059,PAYLOAD,2023-10-30 18:59:07,15.08827712,8.76e-05,53.2175,218.4839,99.707,260.4021,0.00046293,7.085e-05,0.0,0 STARLINK-5059,1 53912U 22119AC  23303.79105502  .00007085  00000-0  46293-3 0  9992,2 53912  53.2175 218.4839 0000876  99.7070 260.4021 15.08827712 61444,6917.918,95.438,540.389,539.177,0.0
53912.0,STARLINK-5059,PAYLOAD,2023-10-30 22:09:53,15.08837714,0.0001425,53.2173,217.8893,110.9432,249.1712,0.00098065,0.00015352,0.0,0 STARLINK-5059,1 53912U 22119AC  23303.92353537  .00015352  00000-0  98065-3 0  9990,2 53912  53.2173 217.8893 0001425 110.9432 249.1712 15.08837714 61886,6917.887,95.438,540.738,538.767,0.0
53912.0,STARLINK-5059,PAYLOAD,2023-10-31 01:20:39,15.08843272,0.0001171,53.2166,217.2961,107.4031,252.709,0.0014928,0.00023552,0.0,0 STARLINK-5059,1 53912U 22119AC  23304.05601625  .00023552  00000-0  14928-2 0  9995,2 53912  53.2166 217.2961 0001171 107.4031 252.7090 15.08843272 61483,6917.87,95.437,540.545,538.925,0.0
53912.0,STARLINK-5059,PAYLOAD,2023-10-31 22:00:40,15.08846536,0.0001011,53.2163,213.4308,104.7341,255.3764,0.00097018,0.00015189,0.0,0 STARLINK-5059,1 53912U 22119AC  23304.91713929  .00015189  00000-0  97018-3 0  9990,2 53912  53.2163 213.4308 0001011 104.7341 255.3764 15.08846536 62035,6917.86,95.437,540.425,539.026,0.0
53912.0,STARLINK-5059,PAYLOAD,2023-11-01 01:11:27,15.0884363,0.0001241,53.2163,212.8374,110.6914,249.4211,0.00047691,7.311e-05,0.0,0 STARLINK-5059,1 53912U 22119AC  23305.04961856  .00007311  00000-0  47691-3 0  9999,2 53912  53.2163 212.8374 0001241 110.6914 249.4211 15.08843630 61636,6917.869,95.437,540.593,538.876,0.0
53912.0,STARLINK-5059,PAYLOAD,2023-11-01 10:43:45,15.08848066,0.000122,53.2163,211.0536,111.5855,248.5267,0.00039938,6.075e-05,0.0,0 STARLINK-5059,1 53912U 22119AC  23305.44705650  .00006075  00000-0  39938-3 0  9992,2 53912  53.2163 211.0536 0001220 111.5855 248.5267 15.08848066 62111,6917.856,95.437,540.565,538.877,0.0
